[
    {
        "Altitude(m)": 605470.734405522,
        "Argument of Periapsis(deg)": 0.0,
        "Eccentricity": 0.0,
        "Inclination(deg)": 60.0,
        "Latitude(deg)": 27.988025641541476,
        "Longitude(deg)": -72.737069362684,
        "Mean Anomaly(deg)": -212.7273,
        "RAAN(deg)": 225.0,
        "Satellite Name": "Test1 999",
        "Satellite Number": 999,
        "Semi-Major Axis(m)": 6980739.136638005,
        "Time(s)": 0
    },
    {
        "Altitude(m)": 605395.7730325055,
        "Argument of Periapsis(deg)": 0.00010418945913296404,
        "Eccentricity": 0.0,
        "Inclination(deg)": 60.0,
        "Latitude(deg)": 27.473716517357648,
        "Longitude(deg)": -72.38388180337553,
        "Mean Anomaly(deg)": -212.10719385453817,
        "RAAN(deg)": 224.99957995086024,
        "Satellite Name": "Test1 999",
        "Satellite Number": 999,
        "Semi-Major Axis(m)": 6980739.136638005,
        "Time(s)": 10
    }
]